NORAD_CAT_ID,OBJECT_NAME,OBJECT_TYPE,EPOCH,MEAN_MOTION,ECCENTRICITY,INCLINATION,RA_OF_ASC_NODE,ARG_OF_PERICENTER,MEAN_ANOMALY,BSTAR,MEAN_MOTION_DOT,MEAN_MOTION_DDOT,TLE_LINE0,TLE_LINE1,TLE_LINE2,SEMIMAJOR_AXIS,PERIOD,APOGEE,PERIGEE,DECAYED
53018.0,STARLINK-4279,PAYLOAD,2022-11-29 12:45:40,15.08828191,0.0002122,53.2197,53.8911,31.2611,328.8507,0.00012863,1.759e-05,0.0,0 STARLINK-4279,1 53018U 22076AJ  22333.53171593  .00001759  00000-0  12863-3 0  9996,2 53018  53.2197  53.8911 0002122  31.2611 328.8507 15.08828191 22408,6917.916,95.438,541.249,538.314,0.0
53018.0,STARLINK-4279,PAYLOAD,2022-11-29 14:21:03,15.08828979,0.0002139,53.2195,53.5935,31.1315,328.9804,0.00013346,1.836e-05,0.0,0 STARLINK-4279,1 53018U 22076AJ  22333.59795589  .00001836  00000-0  13346-3 0  9992,2 53018  53.2195  53.5935 0002139  31.1315 328.9804 15.08828979 22884,6917.9140000000025,95.438,541.259,538.299,0.0
53018.0,STARLINK-4279,PAYLOAD,2022-11-30 06:14:55,15.08830125,0.0002173,53.2202,50.6195,37.1887,322.9255,-3.9376e-05,-9.15e-06,0.0,0 STARLINK-4279,1 53018U 22076AJ  22334.26036631 -.00000915  00000-0 -39376-4 0  9994,2 53018  53.2202  50.6195 0002173  37.1887 322.9255 15.08830125 22988,6917.911,95.438,541.279,538.2719999999998,0.0
53018.0,STARLINK-4279,PAYLOAD,2022-11-30 09:25:42,15.08828433,0.0002126,53.2204,50.0255,32.7127,327.3996,-4.3365e-05,-9.78e-06,0.0,0 STARLINK-4279,1 53018U 22076AJ  22334.39284821 -.00000978  00000-0 -43365-4 0  9996,2 53018  53.2204  50.0255 0002126  32.7127 327.3996 15.08828433 22538,6917.916,95.438,541.251,538.31,0.0
53018.0,STARLINK-4279,PAYLOAD,2022-12-01 04:30:20,15.08825981,0.0002247,53.2196,46.4568,34.5986,325.5152,-0.00011679,-2.146e-05,0.0,0 STARLINK-4279,1 53018U 22076AJ  22335.18774089 -.00002146  00000-0 -11679-3 0  9995,2 53018  53.2196  46.4568 0002247  34.5986 325.5152 15.08825981 23126,6917.9230000000025,95.438,541.3430000000002,538.234,0.0
53018.0,STARLINK-4279,PAYLOAD,2022-12-01 06:05:43,15.08825623,0.0002226,53.2197,46.1601,34.5388,325.5748,-0.0001097,-2.033e-05,0.0,0 STARLINK-4279,1 53018U 22076AJ  22335.25398113 -.00002033  00000-0 -10970-3 0  9991,2 53018  53.2197  46.1601 0002226  34.5388 325.5748 15.08825623 22667,6917.924,95.438,541.3290000000002,538.249,0.0
53018.0,STARLINK-4279,PAYLOAD,2022-12-02 04:21:07,15.08829932,0.0002286,53.2206,41.9971,45.8159,314.3021,0.00016291,2.305e-05,0.0,0 STARLINK-4279,1 53018U 22076AJ  22336.18133690  .00002305  00000-0  16291-3 0  9993,2 53018  53.2206  41.9971 0002286  45.8159 314.3021 15.08829932 23273,6917.911,95.438,541.3580000000002,538.195,0.0
53018.0,STARLINK-4279,PAYLOAD,2022-12-02 10:42:39,15.08839349,0.0002281,53.22,40.8078,37.445,322.67,0.00018529,2.662e-05,0.0,0 STARLINK-4279,1 53018U 22076AJ  22336.44629169  .00002662  00000-0  18529-3 0  9995,2 53018  53.2200  40.8078 0002281  37.4450 322.6700 15.08839349 23313,6917.882,95.438,541.325,538.169,0.0
53018.0,STARLINK-4279,PAYLOAD,2022-12-02 21:50:20,15.08846659,0.0002393,53.2206,38.7266,39.338,320.7786,0.0002693,4.001e-05,0.0,0 STARLINK-4279,1 53018U 22076AJ  22336.90996503  .00004001  00000-0  26930-3 0  9999,2 53018  53.2206  38.7266 0002393  39.3380 320.7786 15.08846659 23383,6917.86,95.437,541.38,538.07,0.0
53018.0,STARLINK-4279,PAYLOAD,2022-12-03 10:33:26,15.08845587,0.0002503,53.2204,36.3477,44.1697,315.9495,0.00023185,3.404e-05,0.0,0 STARLINK-4279,1 53018U 22076AJ  22337.43988770  .00003404  00000-0  23185-3 0  9990,2 53018  53.2204  36.3477 0002503  44.1697 315.9495 15.08845587 22995,6917.863,95.437,541.46,537.997,0.0
53018.0,STARLINK-4279,PAYLOAD,2022-12-03 15:19:36,15.08833049,0.0002241,53.2198,35.455,38.4093,321.7058,7.9477e-05,9.77e-06,0.0,0 STARLINK-4279,1 53018U 22076AJ  22337.63861919  .00000977  00000-0  79477-4 0  9995,2 53018  53.2198  35.4550 0002241  38.4093 321.7058 15.08833049 23490,6917.901999999999,95.438,541.317,538.216,0.0
53018.0,STARLINK-4279,PAYLOAD,2022-12-03 21:41:08,15.088417800000002,0.0002372,53.2198,34.2669,36.0325,324.0826,0.00010838,1.437e-05,0.0,0 STARLINK-4279,1 53018U 22076AJ  22337.90357370  .00001437  00000-0  10838-3 0  9993,2 53018  53.2198  34.2669 0002372  36.0325 324.0826 15.08841780 23530,6917.875,95.437,541.381,538.099,0.0
53018.0,STARLINK-4279,PAYLOAD,2022-12-04 07:13:27,15.0885209,0.0002505,53.2194,32.4834,36.3843,323.7319,5.6095e-05,6.05e-06,0.0,0 STARLINK-4279,1 53018U 22076AJ  22338.30100698  .00000605  00000-0  56095-4 0  9999,2 53018  53.2194  32.4834 0002505  36.3843 323.7319 15.08852090 23591,6917.843000000003,95.437,541.441,537.976,0.0
53018.0,STARLINK-4279,PAYLOAD,2022-12-04 10:24:13,15.08850994,0.0002477,53.2197,31.8886,32.6202,327.4943,4.0789e-05,3.61e-06,0.0,0 STARLINK-4279,1 53018U 22076AJ  22338.43348724  .00000361  00000-0  40789-4 0  9999,2 53018  53.2197  31.8886 0002477  32.6202 327.4943 15.08850994 23146,6917.847,95.437,541.425,537.998,0.0
53018.0,STARLINK-4279,PAYLOAD,2022-12-05 03:53:27,15.08844654,0.0002549,53.2199,28.6184,30.3159,329.798,4.4954e-05,4.27e-06,0.0,0 STARLINK-4279,1 53018U 22076AJ  22339.16212713  .00000427  00000-0  44954-4 0  9999,2 53018  53.2199  28.6184 0002549  30.3159 329.7980 15.08844654 23725,6917.866,95.437,541.495,537.9680000000002,0.0
53018.0,STARLINK-4279,PAYLOAD,2022-12-05 10:15:00,15.08847799,0.0002328,53.2194,27.4275,33.5774,326.5365,3.2487e-05,2.29e-06,0.0,0 STARLINK-4279,1 53018U 22076AJ  22339.42708339  .00000229  00000-0  32487-4 0  9990,2 53018  53.2194  27.4275 0002328  33.5774 326.5365 15.08847799 23298,6917.857,95.437,541.332,538.111,0.0
53018.0,STARLINK-4279,PAYLOAD,2022-12-05 19:47:18,15.08848548,0.0002366,53.2198,25.6428,36.2341,323.8812,0.00018484,2.655e-05,0.0,0 STARLINK-4279,1 53018U 22076AJ  22339.82451846  .00002655  00000-0  18484-3 0  9997,2 53018  53.2198  25.6428 0002366  36.2341 323.8812 15.08848548 23351,6917.854,95.437,541.356,538.082,0.0
53018.0,STARLINK-4279,PAYLOAD,2022-12-06 10:05:47,15.08838319,0.0002262,53.2195,22.9659,22.6838,337.4254,-8.9622e-06,-4.31e-06,0.0,0 STARLINK-4279,1 53018U 22076AJ  22340.42068672 -.00000431  00000-0 -89622-5 0  9992,2 53018  53.2195  22.9659 0002262  22.6838 337.4254 15.08838319 23917,6917.886,95.438,541.315,538.186,0.0
53018.0,STARLINK-4279,PAYLOAD,2022-12-07 19:28:52,15.08841109,0.0001544,53.2179,16.7219,355.8364,4.2615,-4.1245e-05,-9.44e-06,0.0,0 STARLINK-4279,1 53018U 22076AJ  22341.81171550 -.00000944  00000-0 -41245-4 0  9993,2 53018  53.2179  16.7219 0001544 355.8364   4.2615 15.08841109 24124,6917.877,95.437,540.81,538.674,0.0
53018.0,STARLINK-4279,PAYLOAD,2022-12-08 11:22:44,15.0884294,0.000232,53.2178,13.7491,35.0863,325.0282,0.00020425,2.964e-05,0.0,0 STARLINK-4279,1 53018U 22076AJ  22342.47412129  .00002964  00000-0  20425-3 0  9994,2 53018  53.2178  13.7491 0002320  35.0863 325.0282 15.08842940 23752,6917.871,95.437,541.341,538.131,0.0
53018.0,STARLINK-4279,PAYLOAD,2022-12-08 19:19:39,15.08854349,0.0002368,53.217,12.2654,28.5314,331.5808,0.0002927,4.375e-05,0.0,0 STARLINK-4279,1 53018U 22076AJ  22342.80531313  .00004375  00000-0  29270-3 0  9993,2 53018  53.2170  12.2654 0002368  28.5314 331.5808 15.08854349 24279,6917.837,95.437,541.34,538.063,0.0
53018.0,STARLINK-4279,PAYLOAD,2022-12-09 04:51:57,15.08849007,0.0002142,53.2177,10.4774,26.9349,333.1754,0.00025011,3.696e-05,0.0,0 STARLINK-4279,1 53018U 22076AJ  22343.20275287  .00003696  00000-0  25011-3 0  9997,2 53018  53.2177  10.4774 0002142  26.9349 333.1754 15.08849007 23866,6917.853,95.437,541.2,538.236,0.0
53018.0,STARLINK-4279,PAYLOAD,2022-12-10 06:18:09,15.08833686,0.0002142,53.2172,5.7205,29.5432,330.5681,-9.0512e-05,-1.728e-05,0.0,0 STARLINK-4279,1 53018U 22076AJ  22344.26260553 -.00001728  00000-0 -90512-4 0  9999,2 53018  53.2172   5.7205 0002142  29.5432 330.5681 15.08833686 24495,6917.9,95.438,541.247,538.283,0.0
53018.0,STARLINK-4279,PAYLOAD,2022-12-10 12:39:41,15.08848643,0.0002712,53.2173,4.5314,33.5884,326.5279,0.00016846,2.394e-05,0.0,0 STARLINK-4279,1 53018U 22076AJ  22344.52756130  .00002394  00000-0  16846-3 0  9994,2 53018  53.2173   4.5314 0002712  33.5884 326.5279 15.08848643 24535,6917.854,95.437,541.595,537.8430000000002,0.0
53018.0,STARLINK-4279,PAYLOAD,2022-12-11 06:08:56,15.08837057,0.0002026,53.2175,1.2593,3.4821,356.6185,0.00022191,3.245e-05,0.0,0 STARLINK-4279,1 53018U 22076AJ  22345.25620564  .00003245  00000-0  22191-3 0  9992,2 53018  53.2175   1.2593 0002026   3.4821 356.6185 15.08837057 24644,6917.889,95.438,541.156,538.3530000000002,0.0
53018.0,STARLINK-4279,PAYLOAD,2022-12-11 10:55:05,15.08839533,0.0002605,53.2174,0.3678,35.0477,325.0686,0.00025779,3.817e-05,0.0,0 STARLINK-4279,1 53018U 22076AJ  22345.45492865  .00003817  00000-0  25779-3 0  9995,2 53018  53.2174   0.3678 0002605  35.0477 325.0686 15.08839533 24207,6917.882,95.438,541.549,537.945,0.0
53018.0,STARLINK-4279,PAYLOAD,2022-12-12 04:24:20,15.08838259,0.0002351,53.2169,357.0959,29.4029,330.7095,0.00040868,6.222e-05,0.0,0 STARLINK-4279,1 53018U 22076AJ  22346.18357194  .00006222  00000-0  40868-3 0  9990,2 53018  53.2169 357.0959 0002351  29.4029 330.7095 15.08838259 24787,6917.886,95.438,541.377,538.124,0.0
53018.0,STARLINK-4279,PAYLOAD,2022-12-12 12:21:16,15.08836013,0.0002566,53.217,355.6088,37.7869,322.3303,7.0998e-05,8.42e-06,0.0,0 STARLINK-4279,1 53018U 22076AJ  22346.51477246  .00000842  00000-0  70998-4 0  9998,2 53018  53.2170 355.6088 0002566  37.7869 322.3303 15.08836013 24367,6917.893,95.438,541.533,537.982,0.0
53018.0,STARLINK-4279,PAYLOAD,2022-12-13 07:25:53,15.08842741,0.0002507,53.2178,352.0404,31.4963,328.6179,7.8777e-05,9.66e-06,0.0,0 STARLINK-4279,1 53018U 22076AJ  22347.30964727  .00000966  00000-0  78777-4 0  9991,2 53018  53.2178 352.0404 0002507  31.4963 328.6179 15.08842741 24959,6917.871999999999,95.437,541.471,538.003,0.0
